[{"OBJECT_NAME":"ORBCOMM FM04","OBJECT_ID":"1998-007C","EPOCH":"2026-03-09T14:44:15.821664","MEAN_MOTION":14.35529153,"ECCENTRICITY":0.0038795,"INCLINATION":107.9614,"RA_OF_ASC_NODE":324.5497,"ARG_OF_PERICENTER":142.9338,"MEAN_ANOMALY":217.4493,"EPHEMERIS_TYPE":0,"CLASSIFICATION_TYPE":"U","NORAD_CAT_ID":25159,"ELEMENT_SET_NO":999,"REV_AT_EPOCH":46230,"BSTAR":0.0004125,"MEAN_MOTION_DOT":1.067e-5,"MEAN_MOTION_DDOT":0},{"OBJECT_NAME":"COSMOS 2251 DEB","OBJECT_ID":"1993-036XS","EPOCH":"2026-03-08T22:17:45.331296","MEAN_MOTION":14.36556757,"ECCENTRICITY":0.00247999,"INCLINATION":74.0347,"RA_OF_ASC_NODE":147.222,"ARG_OF_PERICENTER":205.6406,"MEAN_ANOMALY":270.5396,"EPHEMERIS_TYPE":0,"CLASSIFICATION_TYPE":"U","NORAD_CAT_ID":34672,"ELEMENT_SET_NO":999,"REV_AT_EPOCH":66415,"BSTAR":0.00026912028,"MEAN_MOTION_DOT":7.67e-6,"MEAN_MOTION_DDOT":0}]
